format  = 'OEF1.1'       ! file format
rectype = 'ML'           ! record type (1L/ML)
refsys  = ECLM J2000     ! default reference system
END_OF_HEADER
1997US9
! Equinoctial elements: a, e*sin(LP), e*cos(LP), tan(i/2)*sin(LN), tan(i/2)*cos(LN), mean long.
 EQU   1.05208196457553E+00 -0.138786371503058 -0.244959431717641 -0.094275768739628 -0.149193269687487 167.2015872610693
 MJD     52470.00000000 TDT
 MAG  17.283  0.150
! RMS    1.00773E-07   1.98039E-07   3.92290E-07   1.40923E-07   2.40723E-07   2.02543E-04
! EIG   4.62524E-09   5.93818E-08   1.04951E-07   1.50131E-07   2.05424E-07   3.56347E-06
! WEA  -0.02809   0.00792   0.10470   0.03049   0.05628   0.99201
 COV   1.015519142385661E-14 -7.254279376040866E-16 -3.685949810741467E-14
 COV  -1.107139862327856E-14 -2.001778994881368E-14 -2.027533228608537E-11
 COV   3.921948109357264E-14  2.001658478898495E-14 -1.003131331077462E-16
 COV   5.043019898533985E-15  5.652942866606140E-12  1.538915289544837E-13
 COV   4.046292025693987E-14  7.666150213089206E-14  7.547227733866281E-11
 COV   1.985930402909350E-14  2.959355693979335E-14  2.197177196810657E-11
 COV   5.794751299196304E-14  4.054081478879334E-11  4.102379512015926E-08
 NOR   4.655219119498637E+16 -2.534107472478273E+15  3.170147812554598E+14
 NOR   6.977281740742767E+14 -4.703077722078202E+14  2.286470122023172E+13
 NOR   1.702889383218184E+14 -3.743807824575712E+13 -2.157691329157244E+13
 NOR   2.170038407590077E+13 -1.216919004073891E+12  8.307266311473577E+13
 NOR   7.450794831484858E+12 -1.440597146058113E+13  1.925358028337701E+10
 NOR   2.377216502104546E+14 -1.070065974375859E+14  3.125328580380134E+11
 NOR   1.058960687352074E+14 -2.562672282484255E+11  1.154300466534540E+10
